IRIDIUM 57 [-]          
1 25273U 98019B   23249.72824994  .00000448  00000+0  15104-3 0  9990
2 25273  86.3930  57.2002 0002099  90.5241 269.6196 14.34885775331623
IRIDIUM 63 [-]          
1 25286U 98021B   23249.22775068  .00000483  00000+0  16172-3 0  9994
2 25286  86.4045 354.3643 0002071  98.2406 261.9026 14.35395032330578
IRIDIUM 69 [-]          
1 25319U 98026A   23249.77767673  .00000804  00000+0  25147-3 0  9998
2 25319  86.4037   9.3294 0003099  47.4971 312.6490 14.39543813329594
IRIDIUM 71 [-]          
1 25320U 98026B   23249.07755313  .00000584  00000+0  17965-3 0  9995
2 25320  86.4033   4.4696 0004219  82.0594 278.1084 14.39887162330006
IRIDIUM 73 [-]          
1 25344U 98032C   23249.13718723  .00000549  00000+0  13659-3 0  9996
2 25344  86.4445 322.3676 0002579  78.9893 281.1602 14.50005642336310
IRIDIUM 82 [-]          
1 25467U 98051A   23249.60333795  .00013195  00000+0  79761-3 0  9994
2 25467  86.3919  59.4185 0149397 178.9568 181.2009 15.01564180325665
IRIDIUM 2 [-]           
1 25527U 98066A   23249.92903417  .00029362  00000+0  75654-3 0  9996
2 25527  85.5199 121.9487 0005707  10.9237 349.2137 15.39050406363726
